{
  "type": "FeatureCollection",
  "features": [
    {
      "type": "Feature",
      "properties": {
        "norad_id": 43602,
        "name": "BEIDOU-3 M12 (C26)",
        "group": "beidou",
        "lat": 50.90163143625551,
        "lon": -55.76358534305397,
        "alt_km": 21511.458202790283,
        "timestamp": "2025-12-23T11:34:48.429875+00:00",
        "meta_object_name": "BEIDOU-3 M12 (C26)",
        "meta_object_id": "2018-067A",
        "meta_epoch": "2025-12-22T18:52:41.106432",
        "meta_mean_motion": 1.86227882,
        "meta_eccentricity": 0.0009247,
        "meta_inclination": 54.1835,
        "meta_ra_of_asc_node": 187.0221,
        "meta_arg_of_pericenter": 41.599,
        "meta_mean_anomaly": 318.5103,
        "meta_ephemeris_type": 0,
        "meta_classification_type": "U",
        "meta_norad_cat_id": 43602,
        "meta_element_set_no": 999,
        "meta_rev_at_epoch": 4983,
        "meta_bstar": 0,
        "meta_mean_motion_dot": 9.5e-07,
        "meta_mean_motion_ddot": 0,
        "tle_line1": "1 43602U 18067A   25356.78658688  .00000095  00000+0  00000+0 0  9996",
        "tle_line2": "2 43602  54.1835 187.0221 0009247  41.5990 318.5103  1.86227882 49833"
      },
      "geometry": {
        "type": "Point",
        "coordinates": [
          -55.76358534305397,
          50.90163143625551
        ]
      }
    },
    {
      "type": "Feature",
      "properties": {
        "norad_id": 43603,
        "name": "BEIDOU-3 M11 (C25)",
        "group": "beidou",
        "lat": 13.224434905337908,
        "lon": -163.25750818755446,
        "alt_km": 21512.20843210527,
        "timestamp": "2025-12-23T11:34:48.429885+00:00",
        "meta_object_name": "BEIDOU-3 M11 (C25)",
        "meta_object_id": "2018-067B",
        "meta_epoch": "2025-12-21T20:19:59.001024",
        "meta_mean_motion": 1.86227373,
        "meta_eccentricity": 0.00056493,
        "meta_inclination": 54.1806,
        "meta_ra_of_asc_node": 187.018,
        "meta_arg_of_pericenter": 37.4949,
        "meta_mean_anomaly": 322.5886,
        "meta_ephemeris_type": 0,
        "meta_classification_type": "U",
        "meta_norad_cat_id": 43603,
        "meta_element_set_no": 999,
        "meta_rev_at_epoch": 4984,
        "meta_bstar": 0,
        "meta_mean_motion_dot": 9.4e-07,
        "meta_mean_motion_ddot": 0,
        "tle_line1": "1 43603U 18067B   25355.84721066  .00000094  00000+0  00000+0 0  9993",
        "tle_line2": "2 43603  54.1806 187.0180 0005649  37.4949 322.5886  1.86227373 49845"
      },
      "geometry": {
        "type": "Point",
        "coordinates": [
          -163.25750818755446,
          13.224434905337908
        ]
      }
    },
    {
      "type": "Feature",
      "properties": {
        "norad_id": 43622,
        "name": "BEIDOU-3 M13 (C32)",
        "group": "beidou",
        "lat": 36.53988395007457,
        "lon": 97.87308059452673,
        "alt_km": 21529.169598220284,
        "timestamp": "2025-12-23T11:34:48.429895+00:00",
        "meta_object_name": "BEIDOU-3 M13 (C32)",
        "meta_object_id": "2018-072A",
        "meta_epoch": "2025-12-22T08:10:31.412640",
        "meta_mean_motion": 1.86231166,
        "meta_eccentricity": 0.00064111,
        "meta_inclination": 56.4667,
        "meta_ra_of_asc_node": 68.5024,
        "meta_arg_of_pericenter": 297.4685,
        "meta_mean_anomaly": 62.5173,
        "meta_ephemeris_type": 0,
        "meta_classification_type": "U",
        "meta_norad_cat_id": 43622,
        "meta_element_set_no": 999,
        "meta_rev_at_epoch": 4936,
        "meta_bstar": 0,
        "meta_mean_motion_dot": -2.9e-07,
        "meta_mean_motion_ddot": 0,
        "tle_line1": "1 43622U 18072A   25356.34064135 -.00000029  00000+0  00000+0 0  9992",
        "tle_line2": "2 43622  56.4667  68.5024 0006411 297.4685  62.5173  1.86231166 49361"
      },
      "geometry": {
        "type": "Point",
        "coordinates": [
          97.87308059452673,
          36.53988395007457
        ]
      }
    },
    {
      "type": "Feature",
      "properties": {
        "norad_id": 43623,
        "name": "BEIDOU-3 M14 (C33)",
        "group": "beidou",
        "lat": 35.552227069904006,
        "lon": -139.7671749537959,
        "alt_km": 21533.499126036833,
        "timestamp": "2025-12-23T11:34:48.429905+00:00",
        "meta_object_name": "BEIDOU-3 M14 (C33)",
        "meta_object_id": "2018-072B",
        "meta_epoch": "2025-12-22T04:56:47.689728",
        "meta_mean_motion": 1.86231163,
        "meta_eccentricity": 0.00035757,
        "meta_inclination": 56.4687,
        "meta_ra_of_asc_node": 68.5008,
        "meta_arg_of_pericenter": 327.1514,
        "meta_mean_anomaly": 32.8768,
        "meta_ephemeris_type": 0,
        "meta_classification_type": "U",
        "meta_norad_cat_id": 43623,
        "meta_element_set_no": 999,
        "meta_rev_at_epoch": 4935,
        "meta_bstar": 0,
        "meta_mean_motion_dot": -3e-07,
        "meta_mean_motion_ddot": 0,
        "tle_line1": "1 43623U 18072B   25356.20610752 -.00000030  00000+0  00000+0 0  9992",
        "tle_line2": "2 43623  56.4687  68.5008 0003575 327.1514  32.8768  1.86231163 49352"
      },
      "geometry": {
        "type": "Point",
        "coordinates": [
          -139.7671749537959,
          35.552227069904006
        ]
      }
    },
    {
      "type": "Feature",
      "properties": {
        "norad_id": 43647,
        "name": "BEIDOU-3 M16 (C35)",
        "group": "beidou",
        "lat": 24.013596648141412,
        "lon": -35.17756138966517,
        "alt_km": 21504.62712310874,
        "timestamp": "2025-12-23T11:34:48.429915+00:00",
        "meta_object_name": "BEIDOU-3 M16 (C35)",
        "meta_object_id": "2018-078A",
        "meta_epoch": "2025-12-22T21:37:04.499328",
        "meta_mean_motion": 1.86232328,
        "meta_eccentricity": 0.000742,
        "meta_inclination": 54.2525,
        "meta_ra_of_asc_node": 306.1662,
        "meta_arg_of_pericenter": 20.3198,
        "meta_mean_anomaly": 339.7131,
        "meta_ephemeris_type": 0,
        "meta_classification_type": "U",
        "meta_norad_cat_id": 43647,
        "meta_element_set_no": 999,
        "meta_rev_at_epoch": 4887,
        "meta_bstar": 0,
        "meta_mean_motion_dot": -5.5e-07,
        "meta_mean_motion_ddot": 0,
        "tle_line1": "1 43647U 18078A   25356.90074652 -.00000055  00000+0  00000+0 0  9991",
        "tle_line2": "2 43647  54.2525 306.1662 0007420  20.3198 339.7131  1.86232328 48878"
      },
      "geometry": {
        "type": "Point",
        "coordinates": [
          -35.17756138966517,
          24.013596648141412
        ]
      }
    },
    {
      "type": "Feature",
      "properties": {
        "norad_id": 43648,
        "name": "BEIDOU-3 M15 (C34)",
        "group": "beidou",
        "lat": -42.6673586365418,
        "lon": -95.42317960491984,
        "alt_km": 21530.19100125079,
        "timestamp": "2025-12-23T11:34:48.429924+00:00",
        "meta_object_name": "BEIDOU-3 M15 (C34)",
        "meta_object_id": "2018-078B",
        "meta_epoch": "2025-12-22T11:49:56.675712",
        "meta_mean_motion": 1.86232375,
        "meta_eccentricity": 0.00040477,
        "meta_inclination": 54.2489,
        "meta_ra_of_asc_node": 306.1811,
        "meta_arg_of_pericenter": 19.7114,
        "meta_mean_anomaly": 340.3062,
        "meta_ephemeris_type": 0,
        "meta_classification_type": "U",
        "meta_norad_cat_id": 43648,
        "meta_element_set_no": 999,
        "meta_rev_at_epoch": 4888,
        "meta_bstar": 0,
        "meta_mean_motion_dot": -5.6e-07,
        "meta_mean_motion_ddot": 0,
        "tle_line1": "1 43648U 18078B   25356.49301708 -.00000056  00000+0  00000+0 0  9992",
        "tle_line2": "2 43648  54.2489 306.1811 0004047  19.7114 340.3062  1.86232375 48880"
      },
      "geometry": {
        "type": "Point",
        "coordinates": [
          -95.42317960491984,
          -42.6673586365418
        ]
      }
    },
    {
      "type": "Feature",
      "properties": {
        "norad_id": 43683,
        "name": "BEIDOU-3 G1 (C59)",
        "group": "beidou",
        "lat": -2.1880927111821373,
        "lon": 45.96055738090461,
        "alt_km": 35788.81664203215,
        "timestamp": "2025-12-23T11:34:48.429935+00:00",
        "meta_object_name": "BEIDOU-3 G1 (C59)",
        "meta_object_id": "2018-085A",
        "meta_epoch": "2025-12-23T04:31:38.584128",
        "meta_mean_motion": 1.00267396,
        "meta_eccentricity": 0.0001495,
        "meta_inclination": 2.6324,
        "meta_ra_of_asc_node": 102.6584,
        "meta_arg_of_pericenter": 44.3716,
        "meta_mean_anomaly": 152.8467,
        "meta_ephemeris_type": 0,
        "meta_classification_type": "U",
        "meta_norad_cat_id": 43683,
        "meta_element_set_no": 999,
        "meta_rev_at_epoch": 2629,
        "meta_bstar": 0,
        "meta_mean_motion_dot": -2.59e-06,
        "meta_mean_motion_ddot": 0,
        "tle_line1": "1 43683U 18085A   25357.18864102 -.00000259  00000+0  00000+0 0  9993",
        "tle_line2": "2 43683   2.6324 102.6584 0001495  44.3716 152.8467  1.00267396 26299"
      },
      "geometry": {
        "type": "Point",
        "coordinates": [
          45.96055738090461,
          -2.1880927111821373
        ]
      }
    }
  ]
}